GSAT0218 (GALILEO 22)   
1 43058U 17079D   26063.74946031  .00000013  00000+0  00000+0 0  9997
2 43058  55.1048 224.3730 0001921 303.9467  55.9718  1.70474529 51236
GOES 17                 
1 43226U 18022A   26064.20896369 -.00000191  00000+0  00000+0 0  9991
2 43226   0.6702  87.5386 0002204 223.0782 198.0411  1.00270294 29384
GSAT0221 (GALILEO 25)   
1 43564U 18060A   26059.54670036 -.00000105  00000+0  00000+0 0  9995
2 43564  57.2051 344.7173 0005804 306.7848  53.1689  1.70475369 47315
GSAT0222 (GALILEO 26)   
1 43565U 18060B   26055.66007047 -.00000092  00000+0  00000+0 0  9996
2 43565  57.2093 344.8256 0004435 285.4820  74.4799  1.70474973 47292
GSAT0219 (GALILEO 23)   
1 43566U 18060C   26053.53475141 -.00000082  00000+0  00000+0 0  9994
2 43566  57.2094 344.8846 0005774 308.6957  51.2673  1.70475208 47235
GSAT0220 (GALILEO 24)   
1 43567U 18060D   26058.44840234 -.00000102  00000+0  00000+0 0  9992
2 43567  57.2075 344.7516 0005301 308.5821  51.3768  1.70475159 47302
BEIDOU-3 M13            
1 43622U 18072A   26063.82956810 -.00000029  00000+0  00000+0 0  9991
2 43622  56.5333  66.1018 0008916 307.8246  52.1164  1.86230808 50718
BEIDOU-3 M14            
1 43623U 18072B   26063.69502611 -.00000028  00000+0  00000+0 0  9992
2 43623  56.5350  66.1003 0006376 328.8150  31.1695  1.86230841 50709
GPS BIII-1              
1 43873U 18109A   26064.25661395  .00000006  00000+0  00000+0 0  9993
2 43873  55.6156  96.2856 0037928 198.3444 123.9005  2.00556870 52980
METEOR-M2 2             
1 44387U 19038A   26064.27920586  .00000625  00000+0  29051-3 0  9996
2 44387  98.9077  50.0697 0001157  12.0564 348.0642 14.24333560346503
GPS BIII-2              
1 44506U 19056A   26064.18575662 -.00000100  00000+0  00000+0 0  9998
2 44506  55.6843 335.2783 0058036 198.1200 333.2871  2.00568377 47989
BEIDOU-3 M24            
1 44542U 19061A   26062.99913500 -.00000010  00000+0  00000+0 0  9998
2 44542  54.3992 186.2751 0008488  19.7399 340.2521  1.86228942 43836
BEIDOU-3 M23            
1 44543U 19061B   26062.31966779 -.00000018  00000+0  00000+0 0  9999
2 44543  54.3976 186.2660 0005077  14.2210 162.4807  1.86227170 43823
BEIDOU-3 M22            
1 44793U 19078A   26063.37544912 -.00000060  00000+0  00000+0 0  9999
2 44793  54.0307 303.5169 0007273  35.6258 324.4804  1.86231851 42694
BEIDOU-3 M21            
1 44794U 19078B   26062.97806659 -.00000058  00000+0  00000+0 0  9991
2 44794  54.0042 303.4937 0005911  39.9322 320.1697  1.86227541 42693
ELEKTRO-L 3             
1 44903U 19095A   26064.18169902 -.00000104  00000+0  00000+0 0  9992
2 44903   0.0443 305.7093 0001673  25.0794 333.4886  1.00270283 22668
GPS BIII-3              
1 45854U 20041A   26064.26889157 -.00000083  00000+0  00000+0 0  9997
2 45854  56.6063  32.9753 0061399 205.2468 328.3125  2.00560688 41956
